STARLINK-31616          
1 59270U 24050S   26068.61263666  .00001672  00000+0  68608-4 0  9999
2 59270  53.1608 181.5703 0001085 125.2346 234.8757 15.30178062110539
TOMORROW-S4             
1 62386U 24247K   26068.53305366  .00012677  00000+0  46927-3 0  9990
2 62386  44.9818 117.9996 0004434 210.4078 149.6548 15.27717249 67702
